start=new Date('2022-03-01T00:00:00.000Z').valueOf();
sats=[{"RA_OF_ASC_NODE":"19.6255","LAUNCH_DATE":"2021-09-14","INCLINATION":"70.0001","EPOCH":"2022-02-28T22:00:00.999936","SITE":"AFWTR","MEAN_ANOMALY":"317.9135","ECCENTRICITY":"0.00032560","DECAY_DATE":null,"ELEMENT_SET_NO":"999","CLASSIFICATION_TYPE":"U","OBJECT_TYPE":"PAYLOAD","REV_AT_EPOCH":"363","NORAD_CAT_ID":"49169","APOAPSIS":"522.702","COUNTRY_CODE":"US","TLE_LINE2":"2 49169  70.0001  19.6255 0003256 283.0620 317.9135 15.15172774  3635","FILE":"3334872","RCS_SIZE":"LARGE","OBJECT_ID":"2021-082AR","TLE_LINE1":"1 49169U 21082AR  22059.91667824 -.00664828  00000-0 -37736-1 0  9996","BSTAR":"-0.03773600000000","EPHEMERIS_TYPE":"0","MEAN_ELEMENT_THEORY":"SGP4","OBJECT_NAME":"STARLINK-3046","MEAN_MOTION_DDOT":"0.0000000000000","MEAN_MOTION_DOT":"-0.00664828","PERIOD":"95.039","SEMIMAJOR_AXIS":"6898.591","MEAN_MOTION":"15.15172774","GP_ID":"197413494","PERIAPSIS":"518.210","CENTER_NAME":"EARTH","ARG_OF_PERICENTER":"283.0620","TIME_SYSTEM":"UTC","REF_FRAME":"TEME"},{"RCS_SIZE":"LARGE","OBJECT_ID":"2021-082AS","COUNTRY_CODE":"US","NORAD_CAT_ID":"49170","APOAPSIS":"574.376","TLE_LINE2":"2 49170  70.0008  40.2660 0003257 282.7490  71.1221 14.98312555  3566","FILE":"3334872","OBJECT_TYPE":"PAYLOAD","REV_AT_EPOCH":"356","PERIAPSIS":"569.848","GP_ID":"197413245","CENTER_NAME":"EARTH","MEAN_MOTION":"14.98312555","REF_FRAME":"TEME","TIME_SYSTEM":"UTC","ARG_OF_PERICENTER":"282.7490","MEAN_MOTION_DOT":"0.00029503","MEAN_MOTION_DDOT":"0.0000000000000","OBJECT_NAME":"STARLINK-3074","SEMIMAJOR_AXIS":"6950.247","PERIOD":"96.108","EPHEMERIS_TYPE":"0","MEAN_ELEMENT_THEORY":"SGP4","BSTAR":"0.00247110000000","TLE_LINE1":"1 49170U 21082AS  22059.91667824  .00029503  00000-0  24711-2 0  9991","EPOCH":"2022-02-28T22:00:00.999936","INCLINATION":"70.0008","RA_OF_ASC_NODE":"40.2660","LAUNCH_DATE":"2021-09-14","DECAY_DATE":null,"ELEMENT_SET_NO":"999","CLASSIFICATION_TYPE":"U","MEAN_ANOMALY":"71.1221","ECCENTRICITY":"0.00032570","SITE":"AFWTR"},{"EPOCH":"2022-02-28T22:00:00.999936","INCLINATION":"70.0003","LAUNCH_DATE":"2021-09-14","RA_OF_ASC_NODE":"40.2755","CLASSIFICATION_TYPE":"U","ELEMENT_SET_NO":"999","DECAY_DATE":null,"ECCENTRICITY":"0.00033280","MEAN_ANOMALY":"328.6364","SITE":"AFWTR","OBJECT_ID":"2021-082AT","RCS_SIZE":"LARGE","FILE":"3334872","TLE_LINE2":"2 49171  70.0003  40.2755 0003328 282.4069 328.6364 14.98277725  3573","COUNTRY_CODE":"US","NORAD_CAT_ID":"49171","APOAPSIS":"574.533","REV_AT_EPOCH":"357","OBJECT_TYPE":"PAYLOAD","REF_FRAME":"TEME","ARG_OF_PERICENTER":"282.4069","TIME_SYSTEM":"UTC","GP_ID":"197411993","PERIAPSIS":"569.906","CENTER_NAME":"EARTH","MEAN_MOTION":"14.98277725","SEMIMAJOR_AXIS":"6950.355","PERIOD":"96.110","MEAN_MOTION_DOT":"-0.00025142","MEAN_MOTION_DDOT":"0.0000000000000","OBJECT_NAME":"STARLINK-3107","MEAN_ELEMENT_THEORY":"SGP4","EPHEMERIS_TYPE":"0","BSTAR":"-0.00210970000000","TLE_LINE1":"1 49171U 21082AT  22059.91667824 -.00025142  00000-0 -21097-2 0  9993"},{"RCS_SIZE":"LARGE","OBJECT_ID":"2021-082AU","OBJECT_TYPE":"PAYLOAD","REV_AT_EPOCH":"362","NORAD_CAT_ID":"49172","APOAPSIS":"526.590","COUNTRY_CODE":"US","TLE_LINE2":"2 49172  70.0001  19.6405 0003579 289.4821 153.7349 15.13966747  3628","FILE":"3334872","OBJECT_NAME":"STARLINK-3091","MEAN_MOTION_DDOT":"0.0000000000000","MEAN_MOTION_DOT":"-0.00664084","PERIOD":"95.114","SEMIMAJOR_AXIS":"6902.254","GP_ID":"197412243","CENTER_NAME":"EARTH","PERIAPSIS":"521.649","MEAN_MOTION":"15.13966747","ARG_OF_PERICENTER":"289.4821","TIME_SYSTEM":"UTC","REF_FRAME":"TEME","TLE_LINE1":"1 49172U 21082AU  22059.91667824 -.00664084  00000-0 -38997-1 0  9994","BSTAR":"-0.03899700000000","EPHEMERIS_TYPE":"0","MEAN_ELEMENT_THEORY":"SGP4","EPOCH":"2022-02-28T22:00:00.999936","RA_OF_ASC_NODE":"19.6405","LAUNCH_DATE":"2021-09-14","INCLINATION":"70.0001","DECAY_DATE":null,"ELEMENT_SET_NO":"999","CLASSIFICATION_TYPE":"U","SITE":"AFWTR","MEAN_ANOMALY":"153.7349","ECCENTRICITY":"0.00035790"},{"EPHEMERIS_TYPE":"0","MEAN_ELEMENT_THEORY":"SGP4","TLE_LINE1":"1 49173U 21082AV  22059.91667824 -.00664394  00000-0 -39060-1 0  9991","BSTAR":"-0.03906000000000","CENTER_NAME":"EARTH","GP_ID":"197412995","PERIAPSIS":"521.802","MEAN_MOTION":"15.13927462","TIME_SYSTEM":"UTC","ARG_OF_PERICENTER":"287.0160","REF_FRAME":"TEME","OBJECT_NAME":"STARLINK-3045","MEAN_MOTION_DDOT":"0.0000000000000","MEAN_MOTION_DOT":"-0.00664394","PERIOD":"95.117","SEMIMAJOR_AXIS":"6902.374","NORAD_CAT_ID":"49173","APOAPSIS":"526.675","COUNTRY_CODE":"US","FILE":"3334872","TLE_LINE2":"2 49173  70.0002  19.5543 0003530 287.0160  56.8527 15.13927462  3621","OBJECT_TYPE":"PAYLOAD","REV_AT_EPOCH":"362","RCS_SIZE":"LARGE","OBJECT_ID":"2021-082AV","MEAN_ANOMALY":"56.8527","ECCENTRICITY":"0.00035300","SITE":"AFWTR","DECAY_DATE":null,"CLASSIFICATION_TYPE":"U","ELEMENT_SET_NO":"999","INCLINATION":"70.0002","RA_OF_ASC_NODE":"19.5543","LAUNCH_DATE":"2021-09-14","EPOCH":"2022-02-28T22:00:00.999936"},{"ELEMENT_SET_NO":"999","CLASSIFICATION_TYPE":"U","DECAY_DATE":null,"SITE":"AFWTR","ECCENTRICITY":"0.00032230","MEAN_ANOMALY":"19.2355","EPOCH":"2022-02-28T22:00:00.999936","LAUNCH_DATE":"2021-09-14","RA_OF_ASC_NODE":"19.6162","INCLINATION":"70.0002","SEMIMAJOR_AXIS":"6897.618","PERIOD":"95.019","MEAN_MOTION_DOT":"-0.00664947","MEAN_MOTION_DDOT":"0.0000000000000","OBJECT_NAME":"STARLINK-3047","REF_FRAME":"TEME","ARG_OF_PERICENTER":"274.9796","TIME_SYSTEM":"UTC","MEAN_MOTION":"15.15493467","GP_ID":"197413745","PERIAPSIS":"517.260","CENTER_NAME":"EARTH","BSTAR":"-0.03740100000000","TLE_LINE1":"1 49174U 21082AW  22059.91667824 -.00664947  00000-0 -37401-1 0  9993","EPHEMERIS_TYPE":"0","MEAN_ELEMENT_THEORY":"SGP4","OBJECT_ID":"2021-082AW","RCS_SIZE":"LARGE","REV_AT_EPOCH":"363","OBJECT_TYPE":"PAYLOAD","FILE":"3334872","TLE_LINE2":"2 49174  70.0002  19.6162 0003223 274.9796  19.2355 15.15493467  3637","COUNTRY_CODE":"US","NORAD_CAT_ID":"49174","APOAPSIS":"521.706"},{"DECAY_DATE":null,"ELEMENT_SET_NO":"999","CLASSIFICATION_TYPE":"U","MEAN_ANOMALY":"226.1961","ECCENTRICITY":"0.00033970","SITE":"AFWTR","EPOCH":"2022-02-28T22:00:00.999936","INCLINATION":"70.0002","RA_OF_ASC_NODE":"19.6471","LAUNCH_DATE":"2021-09-14","GP_ID":"197412493","PERIAPSIS":"520.306","CENTER_NAME":"EARTH","MEAN_MOTION":"15.14450176","REF_FRAME":"TEME","TIME_SYSTEM":"UTC","ARG_OF_PERICENTER":"287.9113","MEAN_MOTION_DOT":"-0.00664836","OBJECT_NAME":"STARLINK-3087","MEAN_MOTION_DDOT":"0.0000000000000","SEMIMAJOR_AXIS":"6900.785","PERIOD":"95.084","EPHEMERIS_TYPE":"0","MEAN_ELEMENT_THEORY":"SGP4","BSTAR":"-0.03851600000000","TLE_LINE1":"1 49175U 21082AX  22059.91667824 -.00664836  00000-0 -38516-1 0  9999","RCS_SIZE":"LARGE","OBJECT_ID":"2021-082AX","COUNTRY_CODE":"US","NORAD_CAT_ID":"49175","APOAPSIS":"524.994","FILE":"3334872","TLE_LINE2":"2 49175  70.0002  19.6471 0003397 287.9113 226.1961 15.14450176  3631","OBJECT_TYPE":"PAYLOAD","REV_AT_EPOCH":"363"},{"MEAN_ELEMENT_THEORY":"SGP4","EPHEMERIS_TYPE":"0","TLE_LINE1":"1 49176U 21082AY  22059.91667824 -.00015030  00000-0 -12449-3 0  9995","BSTAR":"-0.00012449000000","PERIAPSIS":"357.273","GP_ID":"197412743","CENTER_NAME":"EARTH","MEAN_MOTION":"15.69721552","ARG_OF_PERICENTER":"271.3860","TIME_SYSTEM":"UTC","REF_FRAME":"TEME","MEAN_MOTION_DDOT":"0.0000000000000","OBJECT_NAME":"STARLINK-3069","MEAN_MOTION_DOT":"-0.00015030","PERIOD":"91.736","SEMIMAJOR_AXIS":"6737.831","APOAPSIS":"362.118","NORAD_CAT_ID":"49176","COUNTRY_CODE":"US","FILE":"3334872","TLE_LINE2":"2 49176  70.0010  15.1309 0003595 271.3860 213.5066 15.69721552  3688","OBJECT_TYPE":"PAYLOAD","REV_AT_EPOCH":"368","RCS_SIZE":"LARGE","OBJECT_ID":"2021-082AY","MEAN_ANOMALY":"213.5066","ECCENTRICITY":"0.00035950","SITE":"AFWTR","DECAY_DATE":null,"ELEMENT_SET_NO":"999","CLASSIFICATION_TYPE":"U","INCLINATION":"70.0010","RA_OF_ASC_NODE":"15.1309","LAUNCH_DATE":"2021-09-14","EPOCH":"2022-02-28T22:00:00.999936"},{"COUNTRY_CODE":"US","APOAPSIS":"362.015","NORAD_CAT_ID":"49177","TLE_LINE2":"2 49177  70.0003  15.1344 0003480 272.8108 205.6726 15.69730316  3687","FILE":"3334872","OBJECT_TYPE":"PAYLOAD","REV_AT_EPOCH":"368","RCS_SIZE":"LARGE","OBJECT_ID":"2021-082AZ","EPHEMERIS_TYPE":"0","MEAN_ELEMENT_THEORY":"SGP4","BSTAR":"0.00020965000000","TLE_LINE1":"1 49177U 21082AZ  22059.91667824  .00024870  00000-0  20965-3 0  9998","MEAN_MOTION":"15.69730316","GP_ID":"197413495","PERIAPSIS":"357.326","CENTER_NAME":"EARTH","REF_FRAME":"TEME","ARG_OF_PERICENTER":"272.8108","TIME_SYSTEM":"UTC","MEAN_MOTION_DOT":"0.00024870","OBJECT_NAME":"STARLINK-3103","MEAN_MOTION_DDOT":"0.0000000000000","SEMIMAJOR_AXIS":"6737.806","PERIOD":"91.736","INCLINATION":"70.0003","RA_OF_ASC_NODE":"15.1344","LAUNCH_DATE":"2021-09-14","EPOCH":"2022-02-28T22:00:00.999936","MEAN_ANOMALY":"205.6726","ECCENTRICITY":"0.00034800","SITE":"AFWTR","DECAY_DATE":null,"ELEMENT_SET_NO":"999","CLASSIFICATION_TYPE":"U"},{"DECAY_DATE":null,"ELEMENT_SET_NO":"999","CLASSIFICATION_TYPE":"U","MEAN_ANOMALY":"174.2560","ECCENTRICITY":"0.00035400","SITE":"AFWTR","EPOCH":"2022-02-28T22:00:00.999936","INCLINATION":"69.9999","RA_OF_ASC_NODE":"40.2642","LAUNCH_DATE":"2021-09-14","MEAN_MOTION":"14.98316393","GP_ID":"197413246","PERIAPSIS":"569.640","CENTER_NAME":"EARTH","TIME_SYSTEM":"UTC","ARG_OF_PERICENTER":"282.5049","REF_FRAME":"TEME","OBJECT_NAME":"STARLINK-3086","MEAN_MOTION_DDOT":"0.0000000000000","MEAN_MOTION_DOT":"0.00026350","PERIOD":"96.108","SEMIMAJOR_AXIS":"6950.235","EPHEMERIS_TYPE":"0","MEAN_ELEMENT_THEORY":"SGP4","TLE_LINE1":"1 49178U 21082BA  22059.91667824  .00026350  00000-0  22086-2 0  9999","BSTAR":"0.00220860000000","RCS_SIZE":"LARGE","OBJECT_ID":"2021-082BA","NORAD_CAT_ID":"49178","APOAPSIS":"574.560","COUNTRY_CODE":"US","TLE_LINE2":"2 49178  69.9999  40.2642 0003540 282.5049 174.2560 14.98316393  3579","FILE":"3334872","OBJECT_TYPE":"PAYLOAD","REV_AT_EPOCH":"357"}];
